ONEWEB-0116             
1 48046U 21025E   25094.57222726 -.00000011  00000+0 -65900-4 0  9992
2 48046  87.8961  47.3694 0002057  78.1579 281.9780 13.13471159196070
ONEWEB-0150             
1 48047U 21025F   25094.77705068  .00000400  00000+0  10610-2 0  9996
2 48047  87.8955  47.3312 0001795  84.3616 275.7717 13.13470990195993
ONEWEB-0107             
1 48048U 21025G   25094.77874951  .00000358  00000+0  94486-3 0  9991
2 48048  87.8955  47.3287 0001552  81.4751 278.6554 13.13471231195972
ONEWEB-0101             
1 48049U 21025H   25094.58913682 -.00000205  00000+0 -59754-3 0  9998
2 48049  87.8959  47.3996 0001824  78.0128 282.1205 13.13473003195923
ONEWEB-0113             
1 48050U 21025J   25094.77897360  .00000314  00000+0  81856-3 0  9992
2 48050  87.8959  47.3334 0001967  82.2010 277.9342 13.13989612196031
ONEWEB-0112             
1 48051U 21025K   25094.86000880  .00000347  00000+0  91410-3 0  9999
2 48051  87.8954  47.3099 0001898  83.8643 276.2703 13.13470954196056
ONEWEB-0156             
1 48052U 21025L   25094.56375455  .00000233  00000+0  60320-3 0  9990
2 48052  87.8959  47.3766 0001783  82.8740 277.2592 13.13470586196006
ONEWEB-0161             
1 48053U 21025M   25094.76690031  .00000287  00000+0  74981-3 0  9990
2 48053  87.8959  47.3516 0001740  83.1361 276.9966 13.13471990195950
